[{"OBJECT_NAME":"COSMOS 2251 DEB","OBJECT_ID":"1993-036AUU","EPOCH":"2026-03-05T06:52:33.034944","MEAN_MOTION":15.00530799,"ECCENTRICITY":0.0084949,"INCLINATION":74.0317,"RA_OF_ASC_NODE":43.0245,"ARG_OF_PERICENTER":102.0037,"MEAN_ANOMALY":259.0688,"EPHEMERIS_TYPE":0,"CLASSIFICATION_TYPE":"U","NORAD_CAT_ID":35905,"ELEMENT_SET_NO":999,"REV_AT_EPOCH":89820,"BSTAR":0.00077707,"MEAN_MOTION_DOT":0.00010555,"MEAN_MOTION_DDOT":0},{"OBJECT_NAME":"COSMOS 2251 DEB","OBJECT_ID":"1993-036AUZ","EPOCH":"2026-03-07T15:23:24.511488","MEAN_MOTION":14.34204014,"ECCENTRICITY":0.00231084,"INCLINATION":74.0332,"RA_OF_ASC_NODE":156.6345,"ARG_OF_PERICENTER":222.1145,"MEAN_ANOMALY":137.8232,"EPHEMERIS_TYPE":0,"CLASSIFICATION_TYPE":"U","NORAD_CAT_ID":35959,"ELEMENT_SET_NO":999,"REV_AT_EPOCH":86145,"BSTAR":0.00015436869,"MEAN_MOTION_DOT":4.08e-6,"MEAN_MOTION_DDOT":0},{"OBJECT_NAME":"COSMOS 2251 DEB","OBJECT_ID":"1993-036AVB","EPOCH":"2026-03-01T16:32:46.210272","MEAN_MOTION":14.05894038,"ECCENTRICITY":0.01905052,"INCLINATION":73.9258,"RA_OF_ASC_NODE":65.263,"ARG_OF_PERICENTER":340.3294,"MEAN_ANOMALY":19.0559,"EPHEMERIS_TYPE":0,"CLASSIFICATION_TYPE":"U","NORAD_CAT_ID":35961,"ELEMENT_SET_NO":999,"REV_AT_EPOCH":63791,"BSTAR":0.0021300088,"MEAN_MOTION_DOT":4.081e-5,"MEAN_MOTION_DDOT":0},{"OBJECT_NAME":"COSMOS 2251 DEB","OBJECT_ID":"1993-036AVV","EPOCH":"2026-03-07T10:40:44.220000","MEAN_MOTION":14.75777364,"ECCENTRICITY":0.00589582,"INCLINATION":74.008,"RA_OF_ASC_NODE":72.5158,"ARG_OF_PERICENTER":187.6265,"MEAN_ANOMALY":323.3591,"EPHEMERIS_TYPE":0,"CLASSIFICATION_TYPE":"U","NORAD_CAT_ID":35979,"ELEMENT_SET_NO":999,"REV_AT_EPOCH":89882,"BSTAR":0.00096652294,"MEAN_MOTION_DOT":6.783e-5,"MEAN_MOTION_DDOT":0},{"OBJECT_NAME":"COSMOS 2251 DEB","OBJECT_ID":"1993-036AVW","EPOCH":"2026-03-05T00:50:44.824128","MEAN_MOTION":14.60536492,"ECCENTRICITY":0.00511175,"INCLINATION":73.9135,"RA_OF_ASC_NODE":324.4577,"ARG_OF_PERICENTER":81.2804,"MEAN_ANOMALY":279.4146,"EPHEMERIS_TYPE":0,"CLASSIFICATION_TYPE":"U","NORAD_CAT_ID":35980,"ELEMENT_SET_NO":999,"REV_AT_EPOCH":62687,"BSTAR":0.0014993665,"MEAN_MOTION_DOT":7.392e-5,"MEAN_MOTION_DDOT":0},{"OBJECT_NAME":"COSMOS 2251 DEB","OBJECT_ID":"1993-036AVY","EPOCH":"2026-03-06T07:27:07.364160","MEAN_MOTION":14.63365454,"ECCENTRICITY":0.00657137,"INCLINATION":74.0585,"RA_OF_ASC_NODE":186.8714,"ARG_OF_PERICENTER":233.7807,"MEAN_ANOMALY":125.7275,"EPHEMERIS_TYPE":0,"CLASSIFICATION_TYPE":"U","NORAD_CAT_ID":35982,"ELEMENT_SET_NO":999,"REV_AT_EPOCH":87388,"BSTAR":0.00082799154,"MEAN_MOTION_DOT":4.385e-5,"MEAN_MOTION_DDOT":0},{"OBJECT_NAME":"COSMOS 2251 DEB","OBJECT_ID":"1993-036AWD","EPOCH":"2026-03-06T06:28:06.528000","MEAN_MOTION":14.43733721,"ECCENTRICITY":0.00501189,"INCLINATION":74,"RA_OF_ASC_NODE":171.0818,"ARG_OF_PERICENTER":277.652,"MEAN_ANOMALY":81.8946,"EPHEMERIS_TYPE":0,"CLASSIFICATION_TYPE":"U","NORAD_CAT_ID":35987,"ELEMENT_SET_NO":999,"REV_AT_EPOCH":62270,"BSTAR":0.0012338356,"MEAN_MOTION_DOT":4.233e-5,"MEAN_MOTION_DDOT":0},{"OBJECT_NAME":"COSMOS 2251 DEB","OBJECT_ID":"1993-036AWF","EPOCH":"2026-03-02T12:26:52.305216","MEAN_MOTION":14.37210901,"ECCENTRICITY":0.00227968,"INCLINATION":74.0375,"RA_OF_ASC_NODE":137.1171,"ARG_OF_PERICENTER":206.1701,"MEAN_ANOMALY":153.8303,"EPHEMERIS_TYPE":0,"CLASSIFICATION_TYPE":"U","NORAD_CAT_ID":35989,"ELEMENT_SET_NO":999,"REV_AT_EPOCH":88325,"BSTAR":0.00020336343,"MEAN_MOTION_DOT":5.81e-6,"MEAN_MOTION_DDOT":0},{"OBJECT_NAME":"COSMOS 2251 DEB","OBJECT_ID":"1993-036AWK","EPOCH":"2026-02-23T01:17:53.375136","MEAN_MOTION":14.659565,"ECCENTRICITY":0.00301741,"INCLINATION":74.0143,"RA_OF_ASC_NODE":193.375,"ARG_OF_PERICENTER":358.7265,"MEAN_ANOMALY":1.3821,"EPHEMERIS_TYPE":0,"CLASSIFICATION_TYPE":"U","NORAD_CAT_ID":35993,"ELEMENT_SET_NO":999,"REV_AT_EPOCH":61502,"BSTAR":0.0008188738,"MEAN_MOTION_DOT":4.484e-5,"MEAN_MOTION_DDOT":0},{"OBJECT_NAME":"COSMOS 2251 DEB","OBJECT_ID":"1993-036AWN","EPOCH":"2026-03-07T06:46:20.536032","MEAN_MOTION":15.11207911,"ECCENTRICITY":0.0084239,"INCLINATION":74.0107,"RA_OF_ASC_NODE":288.6129,"ARG_OF_PERICENTER":355.2401,"MEAN_ANOMALY":4.798,"EPHEMERIS_TYPE":0,"CLASSIFICATION_TYPE":"U","NORAD_CAT_ID":35996,"ELEMENT_SET_NO":999,"REV_AT_EPOCH":73602,"BSTAR":0.00067551,"MEAN_MOTION_DOT":0.00012336,"MEAN_MOTION_DDOT":0},{"OBJECT_NAME":"COSMOS 2251 DEB","OBJECT_ID":"1993-036AWP","EPOCH":"2026-03-06T14:35:25.325664","MEAN_MOTION":14.51874084,"ECCENTRICITY":0.00123725,"INCLINATION":74.0451,"RA_OF_ASC_NODE":29.4714,"ARG_OF_PERICENTER":87.1603,"MEAN_ANOMALY":273.0974,"EPHEMERIS_TYPE":0,"CLASSIFICATION_TYPE":"U","NORAD_CAT_ID":35997,"ELEMENT_SET_NO":999,"REV_AT_EPOCH":72101,"BSTAR":0.0010621558,"MEAN_MOTION_DOT":4.259e-5,"MEAN_MOTION_DDOT":0},{"OBJECT_NAME":"COSMOS 2251 DEB","OBJECT_ID":"1993-036AWS","EPOCH":"2026-03-06T06:28:23.894400","MEAN_MOTION":14.95081314,"ECCENTRICITY":0.00276601,"INCLINATION":73.9898,"RA_OF_ASC_NODE":278.5868,"ARG_OF_PERICENTER":11.1905,"MEAN_ANOMALY":348.9887,"EPHEMERIS_TYPE":0,"CLASSIFICATION_TYPE":"U","NORAD_CAT_ID":36000,"ELEMENT_SET_NO":999,"REV_AT_EPOCH":61416,"BSTAR":0.0026284596,"MEAN_MOTION_DOT":0.00029108,"MEAN_MOTION_DDOT":0},{"OBJECT_NAME":"COSMOS 2251 DEB","OBJECT_ID":"1993-036AWX","EPOCH":"2026-03-07T01:13:44.334912","MEAN_MOTION":14.4748635,"ECCENTRICITY":0.00600565,"INCLINATION":74.026,"RA_OF_ASC_NODE":296.2426,"ARG_OF_PERICENTER":51.5689,"MEAN_ANOMALY":309.0839,"EPHEMERIS_TYPE":0,"CLASSIFICATION_TYPE":"U","NORAD_CAT_ID":36005,"ELEMENT_SET_NO":999,"REV_AT_EPOCH":88804,"BSTAR":0.00016533032,"MEAN_MOTION_DOT":5.93e-6,"MEAN_MOTION_DDOT":0},{"OBJECT_NAME":"COSMOS 2251 DEB","OBJECT_ID":"1993-036AXG","EPOCH":"2026-03-06T20:08:56.828832","MEAN_MOTION":14.72361007,"ECCENTRICITY":0.00469338,"INCLINATION":73.7605,"RA_OF_ASC_NODE":253.0153,"ARG_OF_PERICENTER":253.1039,"MEAN_ANOMALY":106.4983,"EPHEMERIS_TYPE":0,"CLASSIFICATION_TYPE":"U","NORAD_CAT_ID":36045,"ELEMENT_SET_NO":999,"REV_AT_EPOCH":9625,"BSTAR":0.0025459544,"MEAN_MOTION_DOT":0.00016402,"MEAN_MOTION_DDOT":0},{"OBJECT_NAME":"COSMOS 2251 DEB","OBJECT_ID":"1993-036AXH","EPOCH":"2026-02-23T23:42:49.311072","MEAN_MOTION":14.65767134,"ECCENTRICITY":0.00585152,"INCLINATION":74.0112,"RA_OF_ASC_NODE":135.3155,"ARG_OF_PERICENTER":264.2313,"MEAN_ANOMALY":276.4308,"EPHEMERIS_TYPE":0,"CLASSIFICATION_TYPE":"U","NORAD_CAT_ID":36046,"ELEMENT_SET_NO":999,"REV_AT_EPOCH":65076,"BSTAR":0.00043696795,"MEAN_MOTION_DOT":2.41e-5,"MEAN_MOTION_DDOT":0},{"OBJECT_NAME":"COSMOS 2251 DEB","OBJECT_ID":"1993-036AXJ","EPOCH":"2026-03-06T16:16:14.373696","MEAN_MOTION":15.02239517,"ECCENTRICITY":0.0005299,"INCLINATION":74.0327,"RA_OF_ASC_NODE":163.7984,"ARG_OF_PERICENTER":249.2942,"MEAN_ANOMALY":110.7678,"EPHEMERIS_TYPE":0,"CLASSIFICATION_TYPE":"U","NORAD_CAT_ID":36047,"ELEMENT_SET_NO":999,"REV_AT_EPOCH":67197,"BSTAR":0.0038672976,"MEAN_MOTION_DOT":0.00051367,"MEAN_MOTION_DDOT":0}]
